#dP2022  5 15  0  0  0.00000000      96 __u+U ITR14 FIT  IAC
## 2210      0.00000000   900.00000000 59714 0.0000000000000
+  126   C01C02C03C04C05C06C07C08C09C10C11C12C13C14C16C19C20
+        C21C22C23C24C25C26C27C28C29C30C32C33C34C35C36C37C38
+        C39C40C41C42C43C44C45C46C60E02E03E04E05E07E08E09E10
+        E11E12E13E14E15E18E19E21E24E25E26E27E30E31E33E34E36
+        G01G02G03G04G05G06G07G08G09G10G11G12G13G14G15G16G17
+        G18G19G20G21G22G23G24G25G26G27G28G29G30G31G32J02J03
+        J07R01R02R03R04R05R06R07R08R09R10R11R12R13R14R15R17
+        R18R19R20R21R22R23R24  0  0  0  0  0  0  0  0  0  0
++        15 14 15 15 15  9  9  9  9  8  9  9  9  8  9  7  7
++         7  7  7  7  7  7  7  7  7  7  7  7  7  7  7  7  8
++         8  8  7  7  7  7  7  8 15  4  4  4  4  4  4  4  5
++         5  4  4  4  4  5  5  4  4  4  4  4  5  4  5  4  4
++         4  4  4  4  3  4  4  4  4  4  4  4  3  4  4  4  4
++         4  4  4  4  4  4  4  4  4  4  4  3  3  4  4  8  8
++        16  7  6  6  6  6 13  6  6  6 13  6  5  7  6  6  6
++         6  7  7  6  8 13  6  0  0  0  0  0  0  0  0  0  0
%c M  cc GPS ccc cccc cccc cccc cccc ccccc ccccc ccccc ccccc
%c cc cc ccc ccc cccc cccc cccc cccc ccccc ccccc ccccc ccccc
%f  0.0000000  0.000000000  0.00000000000  0.000000000000000
%f  0.0000000  0.000000000  0.00000000000  0.000000000000000
%i    0    0    0    0      0      0      0      0         0
%i    0    0    0    0      0      0      0      0         0
/* INFORMATION & ANALYSIS CENTER (IAC)            RAPID DATA
/* S/V CLOCKS ARE ALIGNED TO GNSS TIME                      
/* G:C1WC2W R:C1PC2P E:C1XC5X C:C2IC6I J:C1CC2S             
/* PCV:IGS14_2196 OL/AL:FES2004  NONE     YN ORB:CoN CLK:CoN
*  2022 05 15 16  0  0.00000000
PC01 -34354.012853  24433.438717    -37.276351    196.159803
PC02   4326.262515  41975.856845   1275.039052     23.583637
PC03 -14835.066403  39498.434363    587.426691   -552.153890
PC04 -39624.009850  14411.312970   -445.707782    122.184215
PC05  21870.397428  36085.273768   1043.705712    237.914535
PC06  -1212.244454  35165.609149  23412.848776     -9.624274
PC07 -13658.783642  26008.217334 -30294.264903   -170.080624
PC08 -17137.421377  37501.730263   8477.936709    314.209837
PC09   4417.859387  38873.964822  16713.428274   -790.135163
PC10  -4667.568042  26832.492578 -31989.201694    132.110932
PC11  11312.681437  25270.113029  -3314.214524    353.953507
PC12  -2327.778318  20746.599687 -18483.558576   -615.691461
PC13 -10539.256730  37677.456784  15484.287587    -32.030963
PC14  10033.476234  14744.877816  21473.037221    475.584356
PC16  -3345.845545  33242.421769  26052.114053    131.528236
PC19 -19762.261809 -11026.014703 -16314.041152    869.678721
PC20   -961.884740 -15777.787799 -22978.344321   -916.147204
PC21 -19721.034235  11305.309627  16227.681571   -296.044143
PC22 -27922.999152    239.620564     57.045684   -970.172820
PC23  18965.952652  -4090.544484 -20052.482050   -930.141006
PC24  -6292.673088  25289.387030  -9957.635504   -964.798134
PC25  10123.265183  14128.528437 -21834.745279   -736.267534
PC26 -16628.761453  21556.585996   6036.583716    737.467714
PC27   9616.383057 -14046.951574  22084.285792    723.627056
PC28  18701.714131   4703.849422  20168.358762     67.075680
PC29 -17714.506884 -20703.005747  -6029.630390    555.034770
PC30  -5487.117486 -24620.542551  11898.185515    498.526720
PC32  19651.991437 -11424.082556 -16156.328732   -963.314485
PC33  19703.721208  11006.869825  16408.534307   -965.865518
PC34   6239.046062  24877.730561 -11042.669424   -402.935967
PC35 -19162.308284  -5026.687948 -19653.082250    275.290795
PC36  -9407.228110 -14842.953438  21702.847262   -964.288826
PC37  17581.039322 -20483.492141  -7101.308484   -911.800666
PC38 -20677.724226  36654.925912    674.019900    232.333113
PC39  -6679.680162  29135.427977  29837.741876     34.978412
PC40 -19649.659678  19380.957091 -31951.244457    269.282270
PC41  27899.917964     28.786459    494.705270   -965.969216
PC42   -304.528345  15880.789005  22993.144124   -969.764901
PC43  17379.099905  21191.296608   5315.459036   -923.954656
PC44  -9364.052875  14318.668763 -22068.087067    660.506592
PC45 -18937.525972   4435.246229  20007.461181    757.744232
PC46   5157.989343 -25016.974519  11282.626495   -326.051176
PC60   7276.989379  41532.031692   -616.831686     -0.864073
PE02  26776.831595 -11259.656140  -5739.685345    299.342885
PE03  23421.660754  -1498.315508 -18024.469399   -558.542598
PE04  -7194.557722  15529.230606  24162.487897  -1028.530724
PE05  26206.958964  13708.119171  -1153.873354   -181.374024
PE07 -13728.354891 -20697.269244 -16100.510749   -668.769009
PE08   6764.457288 -15578.092642 -24236.019160   -529.569396
PE09  13915.669148  20563.316117  16111.291798   -519.221683
PE10  -1003.586649  29471.990275  -2588.960170   -513.186692
PE11   5516.043871  28049.556427   7707.119119   3661.710359
PE12  -7215.800830  26167.049048 -11841.129798   4612.415665
PE13  -5156.430835 -28269.079934  -7079.855364    428.694731
PE14  -5111.245890 -20537.334217  15224.357383  -1836.818440
PE15   7196.976235 -26079.086275  11998.387965    745.498531
PE18  -6634.719270  19302.768662 -22887.293795  -1445.706488
PE19 -24606.149313   -643.259997  16452.542374  -4712.074476
PE21 -21237.942747  -3463.522074  20322.406936   -734.341183
PE24   1924.662702  17643.972443 -23699.332208   -616.449254
PE25  21063.632588   3681.058360 -20467.016630   -574.034003
PE26 -14756.868169 -12874.075982 -22196.775073  -1147.798946
PE27  -3195.937196 -17062.149126  23977.939445   -299.402496
PE30  17455.129059 -20285.957569  12652.653932   -512.617101
PE31 -16558.768588  20491.303464 -13485.736246   -496.668741
PE33 -15240.491356   8538.603550 -23899.217233   -456.610312
PE34  15183.086280  -8779.314174  23834.153276   -517.188660
PE36  14382.386718  13863.373376  21845.619429   -374.039932
PG01  13063.356450 -15136.212528  17000.021848    362.390696
PG02 -13951.034264  -7950.025527 -20478.655215   -653.244532
PG03  22721.390828 -13084.026123  -3935.718265   -245.191625
PG04  15626.225801  -6085.155905 -20605.572500   -166.984451
PG05 -24097.500143   3424.949123 -10975.778538    -81.946291
PG06  -6374.750840 -22054.344713 -13225.891974    304.453579
PG07   5336.187671 -25435.561643  -3562.959156    322.087978
PG08  21521.454970   1659.808144  15669.051909    -68.125708
PG09   5454.062193 -14750.578825 -21463.855437   -336.524242
PG10   2269.432978  15213.556676  21767.731297   -415.574398
PG11 -13387.908726  -9076.263444 -21072.722943    -24.638851
PG12 -24802.778747   9313.404800   -383.104885   -215.886490
PG13 -21859.319638 -11443.444506   9905.975861    312.077390
PG14   -398.908051 -16038.222417  21151.304554   -108.395133
PG15 -21443.771738   1388.817799  15394.635429    -61.035652
PG16  22456.726197   2833.138078 -14533.087806   -501.095051
PG17 -10181.516722 -20486.443208  13878.810646    612.969905
PG18  -6330.455886  25313.767759  -4633.643990    169.380851
PG19 -16172.192730 -20204.860423   6182.222165    157.685605
PG20 -18398.301806  -4127.061046 -18610.202510    514.987536
PG21  15383.739786  -3940.286813  21850.258254    161.088714
PG22  17739.529428  19456.872020   4575.952953    259.576293
PG23  -9600.002297  17744.553270  17212.444549    -22.047449
PG24 -14264.949788  11266.806861  18928.718186    240.574896
PG25 -16071.276919  17031.932275 -12555.460908    325.047173
PG26  14266.865074   9514.170096 -20439.187509    205.802987
PG27  23153.620410  12226.141628   5363.305647    203.251222
PG28  -9451.416024 -12646.663364  21841.883387    357.433011
PG29  -6657.872280  13569.365229 -21887.262925   -513.917766
PG30   -845.825778 -25878.167370   5371.614384   -527.988679
PG31   8278.538365  19998.944495 -15203.495217   -177.726805
PG32  13460.457419  19811.896766  11824.044206   -127.744379
PJ02 -35280.101150  22135.691308  -2212.719397     -0.137290
PJ03 -19438.316700  24958.374177 -23293.587460     -2.170173
PJ07 -25374.019142  33689.383107     49.150376      0.024367
PR01  25059.321820   4541.785449   1289.185574      8.739690
PR02  18571.935719  -4591.188411 -16856.689540    518.459743
PR03   1297.957841 -10856.807084 -22994.814000     56.691160
PR04 -16400.428858 -10775.253304 -16259.198389    141.642244
PR05 -25006.997813  -4946.862559   -526.172365     92.919520
PR06 -17549.422465   5843.129949  17551.916611    -48.570655
PR07   -395.719599  11038.208741  23037.888588     35.115008
PR08  16509.297965  10823.140006  16230.144135    -65.135354
PR09 -17726.318077  17559.914734   5505.198382     55.189847
PR10 -10496.852475  20725.675520 -10457.606710    -82.421898
PR11   3357.483680  12363.456501 -22049.933187     38.935821
PR12  15598.350080  -3946.787534 -19774.594273     18.458423
PR13  17940.449953 -16814.098171  -6803.642629    -22.339540
PR14   9601.627114 -20492.548390  11763.320047     25.702529
PR15  -4003.137348 -11827.148409  22261.189375     96.104727
PR17  -2449.311178 -22639.286123  11532.188128    526.290364
PR18 -10278.262982 -22742.365902  -5126.502922    116.946028
PR19 -12499.864832 -12387.946914 -18471.201159   -189.101965
PR20  -7717.203467   8908.981223 -22626.751408    -70.627152
PR21   3180.683502  23146.983775 -10216.839846   -301.464802
PR22  10422.186733  22564.970807   5943.069938   -183.332179
PR23  12271.478056   6468.189601  21394.102171    -40.786974
PR24   7628.922560  -9895.202757  22249.963088     93.876523
EOF
